1 03605U 68112B   24071.49904139  .00000095  00000-0  49919-3 0  9994
2 03605  80.3572  77.6871 0058360  81.6083  33.1233 12.60615284539709
1  3605U 68112B   24072.53299615  .00000089  00000-0  46984-3 0  9998
2  3605  80.3573  76.8340 0058359  79.4352  45.4149 12.60615470540301
1 03605U 68112B   24072.99457691  .00000083  00000-0  43084-3 0  9990
2 03605  80.3573  76.4532 0058359  78.4723 340.1530 12.60615533539892
1 03605U 68112B   24073.48407855  .00000074  00000-0  38115-3 0  9991
2 03605  80.3574  76.0494 0058361  77.4392  41.6127 12.60615555539956
1 03605U 68112B   24073.73424941  .00000080  00000-0  41812-3 0  9999
2 03605  80.3574  75.8430 0058367  76.9109  96.9406 12.60615637539986
1 03605U 68112B   24074.25459262  .00000082  00000-0  42755-3 0  9990
2 03605  80.3574  75.4137 0058356  75.8306 298.3485 12.60615726540055
1 03605U 68112B   24074.51513319  .00000077  00000-0  40069-3 0  9993
2 03605  80.3575  75.1988 0058354  75.2843  40.7321 12.60615741540083
1  3605U 68112B   24075.06000378  .00000075  00000-0  38695-3 0  9990
2  3605  80.3575  74.7492 0058354  74.1432 353.4596 12.60615822540628
1 03605U 68112B   24075.46683872  .00000076  00000-0  39303-3 0  9998
2 03605  80.3575  74.4136 0058355  73.2898  39.7561 12.60615871540201
1 03605U 68112B   24076.49980542  .00000081  00000-0  42262-3 0  9990
2 03605  80.3576  73.5613 0058352  71.1230  47.5612 12.60616008540337
1 03605U 68112B   24077.45998580  .00000082  00000-0  42689-3 0  9992
2 03605  80.3577  72.7692 0058345  69.1116  85.0453 12.60616125540451
1  3605U 68112B   24077.45998580  .00000082  00000-0  42689-3 0  9992
2  3605  80.3577  72.7692 0058345  69.1116  85.0453 12.60616125540923
1 03605U 68112B   24078.48485457  .00000088  00000-0  46332-3 0  9995
2 03605  80.3578  71.9237 0058340  66.9626  56.1010 12.60616294540583
1 03605U 68112B   24078.94022285  .00000096  00000-0  50484-3 0  9994
2 03605  80.3579  71.5480 0058332  66.0146 322.6450 12.60616406540640
1 03605U 68112B   24079.44404663  .00000102  00000-0  54179-3 0  9997
2 03605  80.3579  71.1324 0058330  64.9580  89.0967 12.60616514540704
1  3605U 68112B   24080.05869519  .00000105  00000-0  56060-3 0  9995
2  3605  80.3580  70.6253 0058335  63.6726 358.4900 12.60616657541253
1 03605U 68112B   24080.46838970  .00000107  00000-0  57013-3 0  9998
2 03605  80.3581  70.2874 0058321  62.8151  57.7628 12.60616709540834
1 03605U 68112B   24080.93210448  .00000111  00000-0  59091-3 0  9997
2 03605  80.3581  69.9049 0058319  61.8439   2.1911 12.60616806540891
1 03605U 68112B   24081.41984622  .00000105  00000-0  55598-3 0  9994
2 03605  80.3582  69.5025 0058340  60.8117  55.6689 12.60616843540951
1 03605U 68112B   24081.96379163  .00000104  00000-0  55473-3 0  9993
2 03605  80.3583  69.0538 0058345  59.6720   4.2004 12.60616957541023
1 03605U 68112B   24082.45179062  .00000113  00000-0  60420-3 0  9992
2 03605  80.3584  68.6512 0058346  58.6492  58.8368 12.60617106541088
1  3605U 68112B   24082.45179062  .00000113  00000-0  60420-3 0  9992
2  3605  80.3584  68.6512 0058346  58.6492  58.8368 12.60617106541550
1 03605U 68112B   24083.94901757  .00000114  00000-0  60875-3 0  9996
2 03605  80.3588  67.4161 0058346  55.5206  13.5418 12.60617482541270
1 03605U 68112B   24084.43686036  .00000136  00000-0  73640-3 0  9999
2 03605  80.3589  67.0137 0058353  54.4969  67.4713 12.60617715541334
1 03605U 68112B   24084.96704917  .00000182  00000-0  99640-3 0  9995
2 03605  80.3590  66.5764 0058367  53.3976 313.5630 12.60618118541406
1  3605U 68112B   24085.20672565  .00000142  00000-0  77091-3 0  9998
2  3605  80.3591  66.3787 0058346  52.8874 321.2708 12.60617946541903
1 03605U 68112B   24085.93198984  .00000142  00000-0  77095-3 0  9990
2 03605  80.3593  65.7805 0058339  51.3744  12.6589 12.60618155541520
1 03605U 68112B   24086.41938521  .00000135  00000-0  73109-3 0  9997
2 03605  80.3594  65.3785 0058329  50.3454  64.5648 12.60618231541583
1 03605U 68112B   24086.96126022  .00000120  00000-0  64138-3 0  9998
2 03605  80.3595  64.9315 0058325  49.2138   3.6988 12.60618259541659
1 03605U 68112B   24087.45402428  .00000109  00000-0  58081-3 0  9997
2 03605  80.3596  64.5251 0058331  48.1854  79.9567 12.60618255541717
1  3605U 68112B   24087.45402428  .00000109  00000-0  58081-3 0  9997
2  3605  80.3596  64.5251 0058331  48.1854  79.9567 12.60618255542189
1 03605U 68112B   24087.91666807  .00000089  00000-0  46534-3 0  9998
2 03605  80.3597  64.1435 0058331  47.2221  19.5213 12.60618233541776
1 03605U 68112B   24088.40343778  .00000082  00000-0  42853-3 0  9995
2 03605  80.3598  63.7420 0058327  46.2021  68.5800 12.60618256541836
1 03605U 68112B   24088.94561206  .00000076  00000-0  39689-3 0  9998
2 03605  80.3599  63.2949 0058326  45.0719   9.0706 12.60618315541907
1 03605U 68112B   24089.43661865  .00000074  00000-0  38350-3 0  9997
2 03605  80.3600  62.8898 0058320  44.0443  77.3562 12.60618346541963
1  3605U 68112B   24089.89941134  .00000079  00000-0  40924-3 0  9992
2  3605  80.3601  62.5081 0058308  43.0666  17.6112 12.60618446542495
1 03605U 68112B   24089.97771696  .00000078  00000-0  40727-3 0  9995
2 03605  80.3601  62.4435 0058307  42.9032  12.9773 12.60618464542032
1 03605U 68112B   24090.38821450  .00000077  00000-0  40226-3 0  9999
2 03605  80.3601  62.1049 0058313  42.0542  75.8871 12.60618498542083
1 03605U 68112B   24090.92991250  .00000083  00000-0  43362-3 0  9996
2 03605  80.3602  61.6582 0058306  40.9206  14.2211 12.60618612542157
1 03605U 68112B   24091.41974262  .00000080  00000-0  41933-3 0  9994
2 03605  80.3603  61.2542 0058307  39.9016  77.1619 12.60618631542216
1 03605U 68112B   24091.88448878  .00000073  00000-0  37782-3 0  9993
2 03605  80.3603  60.8709 0058305  38.9341  26.2679 12.60618628542277
1  3605U 68112B   24092.18997416  .00000077  00000-0  39796-3 0  9995
2  3605  80.3605  60.6189 0058301  38.2929 332.6238 12.60618682542781
1 03605U 68112B   24092.45241179  .00000079  00000-0  40879-3 0  9999
2 03605  80.3605  60.4024 0058300  37.7441  83.6183 12.60618746542344
1 03605U 68112B   24093.40402420  .00000094  00000-0  49465-3 0  9990
2 03605  80.3607  59.6177 0058287  35.7548  82.2253 12.60618986542467
1 03605U 68112B   24093.86822212  .00000095  00000-0  50048-3 0  9995
2 03605  80.3608  59.2348 0058281  34.7823  28.8503 12.60619072542521
1 03605U 68112B   24094.35571740  .00000095  00000-0  50343-3 0  9995
2 03605  80.3609  58.8328 0058277  33.7639  81.2010 12.60619171542586
1  3605U 68112B   24094.35571740  .00000095  00000-0  50343-3 0  9995
2  3605  80.3609  58.8328 0058277  33.7639  81.2010 12.60619171543059
1 03605U 68112B   24094.89208500  .00000089  00000-0  47051-3 0  9990
2 03605  80.3610  58.3904 0058270  32.6424 355.3452 12.60619260542658
1 03605U 68112B   24095.63833251  .00000087  00000-0  45920-3 0  9991
2 03605  80.3611  57.7750 0058264  31.0898 141.9588 12.60619364542746
1 03605U 68112B   24095.92972507  .00000088  00000-0  46109-3 0  9992
2 03605  80.3612  57.5347 0058259  30.4812  24.3565 12.60619436542783
1 03605U 68112B   24096.34858306  .00000086  00000-0  44958-3 0  9997
2 03605  80.3613  57.1893 0058255  29.6085 125.2154 12.60619494542839
1  3605U 68112B   24096.67012322  .00000080  00000-0  41787-3 0  9994
2  3605  80.3614  56.9241 0058249  28.9327 144.4331 12.60619527543342
1 03605U 68112B   24096.88342209  .00000073  00000-0  37808-3 0  9998
2 03605  80.3615  56.7482 0058250  28.4964  32.4165 12.60619527542904
1 03605U 68112B   24097.62257797  .00000061  00000-0  30941-3 0  9996
2 03605  80.3616  56.1386 0058239  26.9518 146.8539 12.60619535542990
1 03605U 68112B   24097.91375135  .00000054  00000-0  26843-3 0  9993
2 03605  80.3616  55.8985 0058232  26.3446  28.2559 12.60619541543036
1 03605U 68112B   24098.40505950  .00000050  00000-0  24670-3 0  9990
2 03605  80.3618  55.4934 0058231  25.3271  97.9017 12.60619571543093
1 03605U 68112B   24098.94755652  .00000044  00000-0  21084-3 0  9994
2 03605  80.3619  55.0460 0058219  24.1944  39.8614 12.60619620543165
1  3605U 68112B   24099.17447944  .00000047  00000-0  23117-3 0  9994
2  3605  80.3619  54.8589 0058213  23.7154 349.6881 12.60619652543664
1 03605U 68112B   24099.60660044  .00000046  00000-0  22542-3 0  9990
2 03605  80.3620  54.5025 0058209  22.8175 150.7351 12.60619696543241
1 03605U 68112B   24100.63819262  .00000054  00000-0  26891-3 0  9994
2 03605  80.3622  53.6518 0058187  20.6650 152.3054 12.60619846543378
1 03605U 68112B   24101.33950541  .00000062  00000-0  31546-3 0  9990
2 03605  80.3623  53.0735 0058173  19.1950  95.0095 12.60620000543467
1  3605U 68112B   24101.33950541  .00000062  00000-0  31546-3 0  9990
2  3605  80.3623  53.0735 0058173  19.1950  95.0095 12.60620000543939
1 03605U 68112B   24101.88466817  .00000064  00000-0  32838-3 0  9995
2 03605  80.3625  52.6239 0058160  18.0509  49.0733 12.60620072543532
1 03605U 68112B   24102.62231416  .00000076  00000-0  39364-3 0  9997
2 03605  80.3626  52.0157 0058142  16.4993 156.6704 12.60620197543626
1 03605U 68112B   24102.91390344  .00000075  00000-0  38953-3 0  9997
2 03605  80.3627  51.7752 0058133  15.8892  39.9627 12.60620245543660
1 03605U 68112B   24103.33233663  .00000079  00000-0  41036-3 0  9994
2 03605  80.3627  51.4302 0058125  15.0155 138.8967 12.60620300543717
1 03605U 68112B   24103.94713948  .00000080  00000-0  42080-3 0  9992
2 03605  80.3629  50.9233 0058111  13.7334  48.9944 12.60620383543790
1  3605U 68112B   24103.94713948  .00000080  00000-0  42080-3 0  9992
2  3605  80.3629  50.9233 0058111  13.7334  48.9944 12.60620383544263
1 03605U 68112B   24104.35749817  .00000082  00000-0  42865-3 0  9995
2 03605  80.3629  50.5849 0058101  12.8671 111.2940 12.60620402543840
1 03605U 68112B   24104.89781007  .00000079  00000-0  41498-3 0  9998
2 03605  80.3630  50.1394 0058086  11.7399  43.3375 12.60620457543915
1 03605U 68112B   24105.93302566  .00000084  00000-0  44395-3 0  9998
2 03605  80.3632  49.2858 0058058   9.5737  61.3606 12.60620650544048
